IRIDIUM 136             
1 42962U 17061H   24214.54531043  .00000048  00000+0  99719-5 0  9997
2 42962  86.3992 311.3642 0002564  97.2805 262.8682 14.34217603356706
